ONEWEB-0027             
1 45432U 20020J   23362.56437842  .00000005  00000+0 -20424-4 0  9998
2 45432  87.9198 185.1233 0001715  81.8717 278.2609 13.17649545187624
ONEWEB-0064             
1 45433U 20020K   23362.58631679 -.00000509  00000+0 -14732-2 0  9998
2 45433  87.8963 200.2469 0001785  86.2506 273.8826 13.11416891184513
ONEWEB-0018             
1 45434U 20020L   23362.61879693  .00000453  00000+0  12413-2 0  9993
2 45434  87.8962 200.2349 0001374  93.2021 266.9264 13.11417738184468
ONEWEB-0083             
1 45435U 20020M   23362.60744127  .00000158  00000+0  41096-3 0  9998
2 45435  87.8963 200.2162 0001515  87.7293 272.4008 13.11417601184501
ONEWEB-0095             
1 45436U 20020N   23362.59946083 -.00000144  00000+0 -44293-3 0  9991
2 45436  87.8961 200.2575 0001444  70.5188 289.6095 13.11418276184507
ONEWEB-0092             
1 45437U 20020P   23362.64314166 -.00000034  00000+0 -13161-3 0  9997
2 45437  87.8967 200.2283 0001417  69.0556 291.0723 13.11416688184625
ONEWEB-0085             
1 45438U 20020Q   23362.60093019 -.00000100  00000+0 -31681-3 0  9996
2 45438  87.8963 200.2406 0001570  94.2302 265.9005 13.11419269184506
ONEWEB-0096             
1 45439U 20020R   23362.60905060  .00000296  00000+0  79940-3 0  9999
2 45439  87.8959 200.2119 0001377  96.9330 263.1954 13.11420088184490
